TITAN 4B R/B            
1 26474U 00047B   22228.24263926  .00001105  00000+0  10400-3 0  9998
2 26474  67.9930  60.6607 0051442  45.5004 315.0325 14.96993995197390
ENVISAT                 
1 27386U 02009A   22228.50717954  .00000073  00000+0  37588-4 0  9995
2 27386  98.1880 206.8119 0001412  86.2274  23.9928 14.38145203 72098
IDEFIX & ARIANE 42P R/B 
1 27422U 02021B   22228.43561322  .00000132  00000+0  68211-4 0  9991
2 27422  98.4516 172.6412 0013342  62.1339 298.1193 14.29437244 58020
AQUA                    
1 27424U 02022A   22228.51555723  .00000422  00000+0  10333-3 0  9994
2 27424  98.2491 169.8455 0001974  70.7340  64.3669 14.57355368 78932
CZ-4B R/B               
1 27432U 02024C   22228.54650389  .00000004  00000+0  25480-4 0  9998
2 27432  99.0596 254.4983 0051409 106.8452  46.0214 14.14148650 45312
MIDORI II (ADEOS-II)    
1 27597U 02056A   22228.46877473  .00000152  00000+0  79396-4 0  9990
2 27597  98.6085 171.4493 0001145 130.6121 229.5160 14.27633975 24538
H-2A R/B                
1 27601U 02056E   22228.51198095  .00000184  00000+0  80924-4 0  9992
2 27601  98.1779 231.7442 0073329  82.3008  30.8590 14.32094510 27774
CZ-4B R/B               
1 28059U 03049C   22228.43163938  .00000175  00000+0  53922-4 0  9990
2 28059  98.5209 166.1858 0048843 243.6553 115.9622 14.52815467997520
CZ-2C R/B               
1 28222U 04012C   22228.47509572  .00002404  00000+0  13732-3 0  9996
2 28222  97.7761 210.4552 0043884 204.8408 270.7277 15.12941703  5311
SL-16 R/B               
1 28353U 04021B   22228.54435859 -.00000001  00000+0  24321-4 0  9994
2 28353  71.0013  82.2489 0006590 232.7050 127.3472 14.14280681938840
CZ-4B R/B               
1 28415U 04035C   22228.36364264  .00001636  00000+0  10660-3 0  9993
2 28415  97.5123 267.5165 0050135 172.7849 187.4113 15.08306166982621
CZ-2C R/B               
1 28480U 04046B   22228.47104368  .00000095  00000+0  50824-4 0  9991
2 28480  98.0686 211.5019 0142669  44.8210 316.4391 14.25847294922991
ARIANE 5 R/B            
1 28499U 04049H   22228.35602984  .00000460  00000+0  63672-4 0  9999
2 28499  98.1033 345.6623 0090257 240.5580 186.3668 14.80475130952944
CZ-2D R/B               
1 28738U 05024B   22228.48589938  .00002829  00000+0  15855-3 0  9996
2 28738  97.3522 234.5482 0010431 338.4822  21.5970 15.14146447940830
SUZAKU (ASTRO-EII)      
1 28773U 05025A   22228.47217642  .00003648  00000+0  15336-3 0  9999
2 28773  31.3791 269.3736 0004231 253.7093 106.3090 15.21617921944177
ALOS (DAICHI)           
1 28931U 06002A   22228.48615741  .00000479  00000+0  10173-3 0  9997
2 28931  97.9394 191.1140 0002133  88.6509 271.4924 14.63255176883208
H-2A R/B                
1 28932U 06002B   22228.15075474  .00001585  00000+0  14594-3 0  9995
2 28932  98.2874 273.8907 0084942 255.8737 103.3031 14.93719439898954
AKARI (ASTRO-F)         
1 28939U 06005A   22228.20102664  .00022339  00000+0  38232-3 0  9998
2 28939  98.1922 309.4090 0066327  63.3502 297.4519 15.48763107902327
CZ-4B R/B               
1 29093U 06015B   22228.20345383  .00021783  00000+0  24493-3 0  9994
2 29093  97.5920  91.9675 0034866 324.6806  35.2141 15.61845995908871
RESURS-DK 1             
1 29228U 06021A   22228.50257944  .00000941  00000+0  76380-4 0  9995
2 29228  69.9370 335.9668 0006546 305.7131  54.3421 15.03350556891404
GENESIS 1               
1 29252U 06029A   22228.49656888  .00003263  00000+0  14946-3 0  9997
2 29252  64.5197 233.8600 0056951 253.4675 106.0188 15.21077660888108
CZ-4B R/B               
1 29507U 06046C   22228.36851917  .00002234  00000+0  17181-3 0  9996
2 29507  97.7237 258.2083 0045325  29.6841 330.6941 15.01953036863867
CZ-2C R/B               
1 31114U 07010B   22228.47200576 -.00000007  00000+0  15131-4 0  9997
2 31114  98.2460  37.4503 0060715 122.3500 238.3574 14.19440803795079
COSMO-SKYMED 1          
1 31598U 07023A   22228.55371745  .00000562  00000+0  77117-4 0  9990
2 31598  97.8888  51.3518 0001569  93.7228 266.4171 14.82163114821864
GENESIS 2               
1 31789U 07028A   22228.54682452  .00003046  00000+0  14559-3 0  9996
2 31789  64.4945 277.0272 0053300 306.4059  53.2155 15.19947665835030
COSMOS 2428             
1 31792U 07029A   22228.46871912  .00000090  00000+0  74676-4 0  9996
2 31792  70.9527  53.9350 0009516 299.4040  60.6131 14.12593708780325
SL-16 R/B               
1 31793U 07029B   22228.49798816  .00000183  00000+0  12029-3 0  9997
2 31793  70.9761  26.7197 0001927 254.5767 162.3146 14.14476416781357
KORONAS-FOTON           
1 33504U 09003A   22228.27651082  .00002162  00000+0  10590-3 0  9992
2 33504  82.4433 156.2367 0020061  65.5802 294.7521 15.17463035747032
H-2A R/B                
1 38341U 12025E   22228.18288520  .00000703  00000+0  88184-4 0  9991
2 38341  98.4987  87.4061 0053904 213.6151 146.1638 14.84812678554510
CUSAT 2 & FALCON 9 R/B  
1 39271U 13055G   22228.20307940  .00011863  00000+0  25505-3 0  9995
2 39271  80.9579 129.2976 0517929 293.0996  61.6417 14.65275633465517
SHIJIAN-16 (SJ-16)      
1 39358U 13057A   22228.55173941  .00000866  00000+0  10141-3 0  9994
2 39358  74.9754 115.5151 0017611  12.4990 347.6635 14.86247900477920
CZ-2C R/B               
1 39364U 13059B   22228.38598258  .00006791  00000+0  21434-3 0  9996
2 39364  97.1548 279.6989 0043605 116.7078 243.8638 15.32213734489386
SL-4 R/B                
1 39679U 14021B   22228.51480045  .00003399  00000+0  17158-3 0  9993
2 39679  51.6146  36.2051 0164392 167.0971 193.4284 15.09014746458186
ALOS-2                  
1 39766U 14029A   22228.53047851 -.00000102  00000+0 -67707-5 0  9992
2 39766  97.9229 324.7995 0001563  89.5432 270.5966 14.79470860444515
CZ-2C R/B               
1 40306U 14071B   22228.49251779  .00040272  00000+0  38108-3 0  9993
2 40306  97.4206 205.2682 0011692 136.6751 223.5430 15.66790060436288
SL-27 R/B               
1 40354U 14084B   22228.54115312  .00005859  00000+0  12458-3 0  9990
2 40354  74.7373 190.1468 0034294 335.3623  24.5951 15.44526464429872
YAOGAN-29               
1 41038U 15069A   22228.55107198  .00000225  00000+0  36013-4 0  9994
2 41038  98.0575 229.0264 0000423  87.0677 273.0580 14.80902937363180
ASTRO-H (HITOMI)        
1 41337U 16012A   22228.57650884  .00001061  00000+0  77484-4 0  9998
2 41337  31.0061  38.0379 0012256 321.8018  38.1748 14.99523266356158
HXMT (HUIYAN)           
1 42758U 17034A   22228.52488868  .00002306  00000+0  14978-3 0  9998
2 42758  43.0173  17.8888 0010422 297.4228 174.8729 15.10715590285264
CZ-2C R/B               
1 43521U 18054D   22228.50315784  .00003896  00000+0  19817-3 0  9996
2 43521  35.1545 345.0479 0079056 254.9673 104.2281 15.13600050228781
AEOLUS                  
1 43600U 18066A   22228.47007508  .00079817  00000+0  30928-3 0  9997
2 43600  96.7018 233.3262 0009694  83.0037 277.2338 15.86918616230644
SAOCOM 1A               
1 43641U 18076A   22228.56218763  .00000239  00000+0  36628-4 0  9996
2 43641  97.8893  54.3978 0001499  84.7781 275.3611 14.82155345208630
SAOCOM 1B               
1 46265U 20059A   22228.52583693  .00000829  00000+0  11061-3 0  9996
2 46265  97.8879  53.4261 0001462  83.6899 276.4480 14.82162096106029
CSS (TIANHE)            
1 48274U 21035A   22228.40818632  .00007082  00000+0  83925-4 0  9991
2 48274  41.4717 212.1558 0003810 103.8678  24.3648 15.61580555 74188
2022-019U               
1 51842U 22019U   22228.52189910  .00004942  00000+0  19272-3 0  9997
2 51842  97.5562 306.5532 0067192 339.1224  77.0705 15.24324413 25933
SZ-13 MODULE            
1 52260U 21092C   22228.30533815  .00023664  00000+0  18786-3 0  9996
2 52260  41.4792 205.3868 0011608 206.1167 153.9091 15.70606222 18801
CZ-2C R/B               
1 52794U 22058K   22228.47559278  .00002359  00000+0  14030-3 0  9996
2 52794  50.1726 258.1941 0103609 337.4728  22.1693 15.11039197 11364
